From:	Horizons Ephemeris System <horizons@ssd.jpl.nasa.gov>
Sent:	Friday, December 4, 2020 11:43 AM
Subject:	[Horizons] MAJOR BODY #C(usr={180.,25.,.600^G}@301)_T(301) (1/1)

 Automated mail xmit by MAIL_REQUEST, PID= 27820 Fri Dec  4 09:43:06 2020
++++++++++++++++++++++++++++++++ (part 1 of 1)  +++++++++++++++++++++++++++++++
*******************************************************************************
 Revised: July 31, 2013             Moon / (Earth)                          301
 
 GEOPHYSICAL DATA (updated 2018-Aug-15):
  Vol. mean radius, km  = 1737.53+-0.03    Mass, x10^22 kg       =    7.349
  Radius (gravity), km  = 1738.0           Surface emissivity    =    0.92
  Radius (IAU), km      = 1737.4           GM, km^3/s^2          = 4902.800066
  Density, g/cm^3       =    3.3437        GM 1-sigma, km^3/s^2  =  +-0.0001  
  V(1,0)                =   +0.21          Surface accel., m/s^2 =    1.62
  Earth/Moon mass ratio = 81.3005690769    Farside crust. thick. = ~80 - 90 km
  Mean crustal density  = 2.97+-.07 g/cm^3 Nearside crust. thick.= 58+-8 km 
  Heat flow, Apollo 15  = 3.1+-.6 mW/m^2   Mean angular diameter = 31'05.2"
  Heat flow, Apollo 17  = 2.2+-.5 mW/m^2   Sid. rot. rate, rad/s = 0.0000026617
  Geometric Albedo      = 0.12             Mean solar day        = 29.5306 d
  Obliquity to orbit    = 6.67 deg         Orbit period          = 27.321582 d
  Semi-major axis, a    = 384400 km        Eccentricity          = 0.05490
  Mean motion, rad/s    = 2.6616995x10^-6  Inclination           = 5.145 deg
  Apsidal period        = 3231.50 d        Nodal period          = 6798.38 d
                                 Perihelion  Aphelion    Mean
  Solar Constant (W/m^2)         1414+-7     1323+-7     1368+-7
  Maximum Planetary IR (W/m^2)   1314        1226        1268
  Minimum Planetary IR (W/m^2)      5.2         5.2         5.2
********************************************************************************
 
 
*******************************************************************************
Ephemeris / MAIL_REQUEST Fri Dec  4 09:43:05 2020 Pasadena, USA  / Horizons
*******************************************************************************
Target body name: Moon (301)                      {source: DE431mx}
Center body name: Moon (301)                      {source: DE431mx}
Center-site name: (user defined site below)
*******************************************************************************
Start time      : A.D. 2020-Jan-01 00:00:00.0000 TDB
Stop  time      : A.D. 2039-Jan-01 00:00:00.0000 TDB
Step-size       : 10000 steps
*******************************************************************************
Center geodetic : 180.000000,25.0000000,0.6000000 {E-lon(deg),Lat(deg),Alt(km)}
Center cylindric: 180.000000,1575.16293,734.51054 {E-lon(deg),Dxy(km),Dz(km)}
Center pole/equ : IAU_MOON                        {East-longitude positive}
Center radii    : 1737.4 x 1737.4 x 1737.4 km     {Equator, meridian, pole}    
Output units    : KM-S
Output type     : GEOMETRIC cartesian states
Output format   : 3 (position, velocity, LT, range, range-rate)
Reference frame : Ecliptic of J2000.0
*******************************************************************************
JDTDB
   X     Y     Z
   VX    VY    VZ
   LT    RG    RR
*******************************************************************************
$$SOE
2460398.508000001 = A.D. 2024-Mar-29 00:11:31.2001 TDB 
   9.015057652390718E+02  1.276298300288487E+03 -7.609165551632042E+02
  -3.448853999970179E-03  2.383596243535473E-03 -8.802795758365209E-05
   5.797343974543885E-03  1.738000000000001E+03  9.422203459851007E-19
2460399.202000001 = A.D. 2024-Mar-29 16:50:52.8001 TDB 
   6.841973880028465E+02  1.402151709033944E+03 -7.658253842118788E+02
  -3.784003027244000E-03  1.805294908535007E-03 -7.535353007651947E-05
   5.797343974543883E-03  1.738000000000000E+03  1.557059046331311E-19
2460399.896000001 = A.D. 2024-Mar-30 09:30:14.4001 TDB 
   4.496402145285917E+02  1.491877785554640E+03 -7.699145085314777E+02
  -4.022962170212249E-03  1.181140189121094E-03 -6.074539830179830E-05
   5.797343974543884E-03  1.738000000000000E+03 -2.435400046825897E-19
2460400.590000001 = A.D. 2024-Mar-31 02:09:36.0001 TDB 
   2.037963669724591E+02  1.543197961522707E+03 -7.730789690329120E+02
  -4.159668917299911E-03  5.269986833584912E-04 -4.457774774693595E-05
   5.797343974543883E-03  1.738000000000000E+03  8.783410004945857E-20
2460401.284000000 = A.D. 2024-Mar-31 18:48:57.6001 TDB 
  -4.708583311728463E+01  1.554809863782116E+03 -7.752375196064045E+02
  -4.190659754987235E-03 -1.405046601739843E-04 -2.726561232736362E-05
   5.797343974543884E-03  1.738000000000000E+03  4.591327957130789E-20
2460401.978000001 = A.D. 2024-Apr-01 11:28:19.2001 TDB 
  -2.966306449581661E+02  1.526420193703683E+03 -7.763347555824823E+02
  -4.115157004035240E-03 -8.044088223443566E-04 -9.253990185389223E-06
   5.797343974543883E-03  1.738000000000000E+03 -6.687368981038323E-20
2460402.672000001 = A.D. 2024-Apr-02 04:07:40.8001 TDB 
  -5.384968599559045E+02  1.458751987311104E+03 -7.763425605578606E+02
  -3.935087556328846E-03 -1.447847151962772E-03  8.993945251699179E-06
   5.797343974543882E-03  1.738000000000000E+03  1.582011915663544E-19
2460403.366000000 = A.D. 2024-Apr-02 20:47:02.4001 TDB 
  -7.665388215535922E+02  1.353526092107775E+03 -7.752608290341298E+02
  -3.655033146955445E-03 -2.054475112950078E-03  2.700914254707542E-05
   5.797343974543882E-03  1.738000000000000E+03 -1.916380364715460E-19
2460404.060000001 = A.D. 2024-Apr-03 13:26:24.0001 TDB 
  -9.749624398534731E+02  1.213417345444761E+03 -7.731174468660970E+02
  -3.282113497625071E-03 -2.608884589282210E-03  4.432906120656560E-05
   5.797343974543883E-03  1.738000000000000E+03 -7.984918186314416E-21
2460404.754000001 = A.D. 2024-Apr-04 06:05:45.6001 TDB 
  -1.158472257601377E+03  1.041986574526172E+03 -7.699675362475898E+02
  -2.825805328591236E-03 -3.096994351623019E-03  6.050974955070692E-05
   5.797343974543883E-03  1.738000000000000E+03  8.783410004945859E-20
2460405.448000001 = A.D. 2024-Apr-04 22:45:07.2001 TDB 
  -1.312405851804014E+03  8.435901446998564E+02 -7.658919949417523E+02
  -2.297701821370505E-03 -3.506406890635518E-03  7.513725198809041E-05
   5.797343974543885E-03  1.738000000000000E+03  7.944993595382843E-19
2460406.142000000 = A.D. 2024-Apr-05 15:24:28.8001 TDB 
  -1.432852174872442E+03  6.232693461024081E+02 -7.609953792056756E+02
  -1.711218589325509E-03 -3.826722656797719E-03  8.783804896344552E-05
   5.797343974543884E-03  1.738000000000000E+03 -1.996229546578604E-19
2460406.836000001 = A.D. 2024-Apr-06 08:03:50.4001 TDB 
  -1.516750843076773E+03  3.866224155068726E+02 -7.554031955542216E+02
  -1.081253544341599E-03 -4.049803798187888E-03  9.828830300497612E-05
   5.797343974543885E-03  1.738000000000000E+03  4.232006638746640E-19
2460407.530000001 = A.D. 2024-Apr-07 00:43:12.0001 TDB 
  -1.561969858720792E+03  1.396624279470591E+02 -7.492586780729877E+02
  -4.238092036724648E-04 -4.169980734757318E-03  1.062217501182285E-04
   5.797343974543883E-03  1.738000000000000E+03 -7.984918186314416E-20
2460408.224000000 = A.D. 2024-Apr-07 17:22:33.6001 TDB 
  -1.567359794369860E+03 -1.113353495472212E+02 -7.427191359686831E+02
   2.444130674881954E-04 -4.184196323442406E-03  1.114361284593902E-04
   5.797343974543883E-03  1.738000000000000E+03 -2.395475455894325E-20
2460408.918000001 = A.D. 2024-Apr-08 10:01:55.2001 TDB 
  -1.532783059674351E+03 -3.599927811933952E+02 -7.359519613833371E+02
   9.064366606226900E-04 -4.092083921530098E-03  1.137980712229178E-04
   5.797343974543883E-03  1.738000000000000E+03  1.038039364220874E-19
2460409.612000001 = A.D. 2024-Apr-09 02:41:16.8001 TDB 
  -1.459117499372589E+03 -5.999908295454333E+02 -7.291303912785868E+02
   1.545440487905233E-03 -3.895977309673789E-03  1.132464080054721E-04
   5.797343974543884E-03  1.738000000000000E+03 -3.193967274525766E-20
2460410.306000001 = A.D. 2024-Apr-09 19:20:38.4001 TDB 
  -1.348234219411307E+03 -8.252300622506716E+02 -7.224291203752349E+02
   2.145186013031507E-03 -3.600852150687550E-03  1.097938226169010E-04
   5.797343974543883E-03  1.738000000000000E+03  5.828990276009524E-19
2460411.000000000 = A.D. 2024-Apr-10 12:00:00.0001 TDB 
  -1.202950190543883E+03 -1.029985626856339E+03 -7.160198653248322E+02
   2.690429726260377E-03 -3.214200392596528E-03  1.035268125234863E-04
   5.797343974543883E-03  1.738000000000000E+03 -1.357436091673451E-19
2460411.694000001 = A.D. 2024-Apr-11 04:39:21.6001 TDB 
  -1.026956818698489E+03 -1.209052757863299E+03 -7.100669836232566E+02
   3.167310587134794E-03 -2.745840729439829E-03  9.460389475628227E-05
   5.797343974543883E-03  1.738000000000000E+03  4.950649275514937E-19
2460412.388000001 = A.D. 2024-Apr-11 21:18:43.2001 TDB 
  -8.247262824655344E+02 -1.357879116316240E+03 -7.047232538257896E+02
   3.563702574247567E-03 -2.207669865697673E-03  8.325201440564228E-05
   5.797343974543884E-03  1.738000000000000E+03  5.509593548556947E-19
2460413.082000000 = A.D. 2024-Apr-12 13:58:04.8001 TDB 
  -6.013980043937789E+02 -1.472680592941780E+03 -7.001259254475779E+02
   3.869523352860751E-03 -1.613360845609970E-03  6.976114239040578E-05
   5.797343974543884E-03  1.738000000000000E+03 -7.026728003956687E-19
2460413.776000001 = A.D. 2024-Apr-13 06:37:26.4001 TDB 
  -3.626481297977435E+02 -1.550537622836292E+03 -6.963931462352151E+02
   4.076991175553167E-03 -9.780160661083284E-04  5.447710309635257E-05
   5.797343974543885E-03  1.738000000000000E+03 -3.992459093157208E-20
2460414.470000001 = A.D. 2024-Apr-13 23:16:48.0001 TDB 
  -1.145453212742099E+02 -1.589469552473576E+03 -6.936208698803972E+02
   4.180823439139453E-03 -3.177837551475734E-04  3.779274844387265E-05
   5.797343974543883E-03  1.738000000000000E+03  3.992459093157209E-21
